STARLINK-35513          
1 65930U 25225W   25309.25001157 -.00049693  00000+0 -89032-3 0  9996
2 65930  53.1612  25.5367 0001180  87.5901 134.0155 15.49333306  5406
STARLINK-35526          
1 65931U 25225X   25309.20929231  .00109328  00000+0  19441-2 0  9990
2 65931  53.1607  25.7197 0001057  80.6453 279.4676 15.49341683  5323
STARLINK-35436          
1 65932U 25225Y   25309.20894825  .00069490  00000+0  12456-2 0  9995
2 65932  53.1608  25.7179 0001233  85.3126 274.8024 15.49327199  5322
STARLINK-35192          
1 65933U 25225Z   25309.25001157 -.00045405  00000+0 -81240-3 0  9999
2 65933  53.1610  25.5086 0001234  95.0233 139.9998 15.49331368  5402
STARLINK-33921          
1 65934U 25225AA  25309.25001157  .00082605  00000+0  14805-2 0  9993
2 65934  53.1609  25.5167 0001184  96.4163 134.8061 15.49253278  5398
STARLINK-35155          
1 65935U 25225AB  25309.20826096  .00092967  00000+0  16582-2 0  9992
2 65935  53.1610  25.7134 0000921  74.0731 286.0380 15.49336098  4438
STARLINK-35161          
1 65936U 25225AC  25309.20757408  .00078563  00000+0  14051-2 0  9998
2 65936  53.1608  25.7091 0001046  73.2350 286.8774 15.49335299  4432
STARLINK-35473          
1 65937U 25225AD  25309.20723100  .00085731  00000+0  15312-2 0  9997
2 65937  53.1608  25.7078 0001108  74.1364 285.9768 15.49335692  4432
2025-226A               
1 65938U 25226A   25309.29551757  .00010619  00000+0  62129-3 0  9997
2 65938  97.6669  23.5026 0015049 193.9295 166.1522 15.11942781  3815
2025-226B               
1 65939U 25226B   25309.32486947  .00005581  00000+0  34802-3 0  9999
2 65939  97.6628  23.4510 0021048 196.8154 163.2379 15.09764556  3806
2025-226C               
1 65940U 25226C   25309.29737958  .00011011  00000+0  64605-3 0  9997
2 65940  97.6577  23.4722 0015003 191.8765 168.2114 15.11830152  3804
YOTSUBA-KULOVER         
1 65941U 98067XN  25309.21802813  .00053329  00000+0  82139-3 0  9996
2 65941  51.6319 327.7352 0002624   8.3465 351.7569 15.53654674  4018
