CCSDS_OMM_VERS = 2.0
CREATION_DATE  = 
ORIGINATOR     = 

OBJECT_NAME    = STARLINK-35513
OBJECT_ID      = 2025-225W
CENTER_NAME    = EARTH
REF_FRAME      = TEME
TIME_SYSTEM    = UTC
MEAN_ELEMENT_THEORY = SGP/SGP4

EPOCH          = 2025-11-05T06:00:00.999648
MEAN_MOTION    = 15.49333306
ECCENTRICITY   = .00011809
INCLINATION    = 53.1612
RA_OF_ASC_NODE = 25.5367
ARG_OF_PERICENTER = 87.5901
MEAN_ANOMALY   = 134.0155

EPHEMERIS_TYPE = 0
CLASSIFICATION_TYPE = U
NORAD_CAT_ID   = 65930
ELEMENT_SET_NO = 999
REV_AT_EPOCH   = 540
BSTAR          = -.89032039E-3
MEAN_MOTION_DOT = -.49693E-3
MEAN_MOTION_DDOT = 0

CCSDS_OMM_VERS = 2.0
CREATION_DATE  = 
ORIGINATOR     = 

OBJECT_NAME    = STARLINK-35526
OBJECT_ID      = 2025-225X
CENTER_NAME    = EARTH
REF_FRAME      = TEME
TIME_SYSTEM    = UTC
MEAN_ELEMENT_THEORY = SGP/SGP4

EPOCH          = 2025-11-05T05:01:22.855584
MEAN_MOTION    = 15.49341683
ECCENTRICITY   = .0001057
INCLINATION    = 53.1607
RA_OF_ASC_NODE = 25.7197
ARG_OF_PERICENTER = 80.6453
MEAN_ANOMALY   = 279.4676

EPHEMERIS_TYPE = 0
CLASSIFICATION_TYPE = U
NORAD_CAT_ID   = 65931
ELEMENT_SET_NO = 999
REV_AT_EPOCH   = 532
BSTAR          = .19441458E-2
MEAN_MOTION_DOT = .109328E-2
MEAN_MOTION_DDOT = 0

CCSDS_OMM_VERS = 2.0
CREATION_DATE  = 
ORIGINATOR     = 

OBJECT_NAME    = STARLINK-35436
OBJECT_ID      = 2025-225Y
CENTER_NAME    = EARTH
REF_FRAME      = TEME
TIME_SYSTEM    = UTC
MEAN_ELEMENT_THEORY = SGP/SGP4

EPOCH          = 2025-11-05T05:00:53.128800
MEAN_MOTION    = 15.49327199
ECCENTRICITY   = .00012337
INCLINATION    = 53.1608
RA_OF_ASC_NODE = 25.7179
ARG_OF_PERICENTER = 85.3126
MEAN_ANOMALY   = 274.8024

EPHEMERIS_TYPE = 0
CLASSIFICATION_TYPE = U
NORAD_CAT_ID   = 65932
ELEMENT_SET_NO = 999
REV_AT_EPOCH   = 532
BSTAR          = .12456037E-2
MEAN_MOTION_DOT = .6949E-3
MEAN_MOTION_DDOT = 0

CCSDS_OMM_VERS = 2.0
CREATION_DATE  = 
ORIGINATOR     = 

OBJECT_NAME    = STARLINK-35192
OBJECT_ID      = 2025-225Z
CENTER_NAME    = EARTH
REF_FRAME      = TEME
TIME_SYSTEM    = UTC
MEAN_ELEMENT_THEORY = SGP/SGP4

EPOCH          = 2025-11-05T06:00:00.999648
MEAN_MOTION    = 15.49331368
ECCENTRICITY   = .00012344
INCLINATION    = 53.1610
RA_OF_ASC_NODE = 25.5086
ARG_OF_PERICENTER = 95.0233
MEAN_ANOMALY   = 139.9998

EPHEMERIS_TYPE = 0
CLASSIFICATION_TYPE = U
NORAD_CAT_ID   = 65933
ELEMENT_SET_NO = 999
REV_AT_EPOCH   = 540
BSTAR          = -.81240228E-3
MEAN_MOTION_DOT = -.45405E-3
MEAN_MOTION_DDOT = 0

CCSDS_OMM_VERS = 2.0
CREATION_DATE  = 
ORIGINATOR     = 

OBJECT_NAME    = STARLINK-33921
OBJECT_ID      = 2025-225AA
CENTER_NAME    = EARTH
REF_FRAME      = TEME
TIME_SYSTEM    = UTC
MEAN_ELEMENT_THEORY = SGP/SGP4

EPOCH          = 2025-11-05T06:00:00.999648
MEAN_MOTION    = 15.49253278
ECCENTRICITY   = .00011849
INCLINATION    = 53.1609
RA_OF_ASC_NODE = 25.5167
ARG_OF_PERICENTER = 96.4163
MEAN_ANOMALY   = 134.8061

EPHEMERIS_TYPE = 0
CLASSIFICATION_TYPE = U
NORAD_CAT_ID   = 65934
ELEMENT_SET_NO = 999
REV_AT_EPOCH   = 539
BSTAR          = .14805342E-2
MEAN_MOTION_DOT = .82605E-3
MEAN_MOTION_DDOT = 0

CCSDS_OMM_VERS = 2.0
CREATION_DATE  = 
ORIGINATOR     = 

OBJECT_NAME    = STARLINK-35155
OBJECT_ID      = 2025-225AB
CENTER_NAME    = EARTH
REF_FRAME      = TEME
TIME_SYSTEM    = UTC
MEAN_ELEMENT_THEORY = SGP/SGP4

EPOCH          = 2025-11-05T04:59:53.746944
MEAN_MOTION    = 15.49336098
ECCENTRICITY   = .00009218
INCLINATION    = 53.1610
RA_OF_ASC_NODE = 25.7134
ARG_OF_PERICENTER = 74.0731
MEAN_ANOMALY   = 286.0380

EPHEMERIS_TYPE = 0
CLASSIFICATION_TYPE = U
NORAD_CAT_ID   = 65935
ELEMENT_SET_NO = 999
REV_AT_EPOCH   = 443
BSTAR          = .16582004E-2
MEAN_MOTION_DOT = .92967E-3
MEAN_MOTION_DDOT = 0

CCSDS_OMM_VERS = 2.0
CREATION_DATE  = 
ORIGINATOR     = 

OBJECT_NAME    = STARLINK-35161
OBJECT_ID      = 2025-225AC
CENTER_NAME    = EARTH
REF_FRAME      = TEME
TIME_SYSTEM    = UTC
MEAN_ELEMENT_THEORY = SGP/SGP4

EPOCH          = 2025-11-05T04:58:54.400512
MEAN_MOTION    = 15.49335299
ECCENTRICITY   = .00010467
INCLINATION    = 53.1608
RA_OF_ASC_NODE = 25.7091
ARG_OF_PERICENTER = 73.2350
MEAN_ANOMALY   = 286.8774

EPHEMERIS_TYPE = 0
CLASSIFICATION_TYPE = U
NORAD_CAT_ID   = 65936
ELEMENT_SET_NO = 999
REV_AT_EPOCH   = 443
BSTAR          = .14051469E-2
MEAN_MOTION_DOT = .78563E-3
MEAN_MOTION_DDOT = 0

CCSDS_OMM_VERS = 2.0
CREATION_DATE  = 
ORIGINATOR     = 

OBJECT_NAME    = STARLINK-35473
OBJECT_ID      = 2025-225AD
CENTER_NAME    = EARTH
REF_FRAME      = TEME
TIME_SYSTEM    = UTC
MEAN_ELEMENT_THEORY = SGP/SGP4

EPOCH          = 2025-11-05T04:58:24.758400
MEAN_MOTION    = 15.49335692
ECCENTRICITY   = .00011084
INCLINATION    = 53.1608
RA_OF_ASC_NODE = 25.7078
ARG_OF_PERICENTER = 74.1364
MEAN_ANOMALY   = 285.9768

EPHEMERIS_TYPE = 0
CLASSIFICATION_TYPE = U
NORAD_CAT_ID   = 65937
ELEMENT_SET_NO = 999
REV_AT_EPOCH   = 443
BSTAR          = .15312001E-2
MEAN_MOTION_DOT = .85731E-3
MEAN_MOTION_DDOT = 0

CCSDS_OMM_VERS = 2.0
CREATION_DATE  = 
ORIGINATOR     = 

OBJECT_NAME    = 2025-226A
OBJECT_ID      = 2025-226A
CENTER_NAME    = EARTH
REF_FRAME      = TEME
TIME_SYSTEM    = UTC
MEAN_ELEMENT_THEORY = SGP/SGP4

EPOCH          = 2025-11-05T07:05:32.718048
MEAN_MOTION    = 15.11942781
ECCENTRICITY   = .00150493
INCLINATION    = 97.6669
RA_OF_ASC_NODE = 23.5026
ARG_OF_PERICENTER = 193.9295
MEAN_ANOMALY   = 166.1522

EPHEMERIS_TYPE = 0
CLASSIFICATION_TYPE = U
NORAD_CAT_ID   = 65938
ELEMENT_SET_NO = 999
REV_AT_EPOCH   = 381
BSTAR          = .62128804E-3
MEAN_MOTION_DOT = .10619E-3
MEAN_MOTION_DDOT = 0

CCSDS_OMM_VERS = 2.0
CREATION_DATE  = 
ORIGINATOR     = 

OBJECT_NAME    = 2025-226B
OBJECT_ID      = 2025-226B
CENTER_NAME    = EARTH
REF_FRAME      = TEME
TIME_SYSTEM    = UTC
MEAN_ELEMENT_THEORY = SGP/SGP4

EPOCH          = 2025-11-05T07:47:48.722208
MEAN_MOTION    = 15.09764556
ECCENTRICITY   = .0021048
INCLINATION    = 97.6628
RA_OF_ASC_NODE = 23.4510
ARG_OF_PERICENTER = 196.8154
MEAN_ANOMALY   = 163.2379

EPHEMERIS_TYPE = 0
CLASSIFICATION_TYPE = U
NORAD_CAT_ID   = 65939
ELEMENT_SET_NO = 999
REV_AT_EPOCH   = 380
BSTAR          = .34802111E-3
MEAN_MOTION_DOT = .5581E-4
MEAN_MOTION_DDOT = 0

CCSDS_OMM_VERS = 2.0
CREATION_DATE  = 
ORIGINATOR     = 

OBJECT_NAME    = 2025-226C
OBJECT_ID      = 2025-226C
CENTER_NAME    = EARTH
REF_FRAME      = TEME
TIME_SYSTEM    = UTC
MEAN_ELEMENT_THEORY = SGP/SGP4

EPOCH          = 2025-11-05T07:08:13.595712
MEAN_MOTION    = 15.11830152
ECCENTRICITY   = .00150037
INCLINATION    = 97.6577
RA_OF_ASC_NODE = 23.4722
ARG_OF_PERICENTER = 191.8765
MEAN_ANOMALY   = 168.2114

EPHEMERIS_TYPE = 0
CLASSIFICATION_TYPE = U
NORAD_CAT_ID   = 65940
ELEMENT_SET_NO = 999
REV_AT_EPOCH   = 380
BSTAR          = .64604907E-3
MEAN_MOTION_DOT = .11011E-3
MEAN_MOTION_DDOT = 0

CCSDS_OMM_VERS = 2.0
CREATION_DATE  = 
ORIGINATOR     = 

OBJECT_NAME    = YOTSUBA-KULOVER
OBJECT_ID      = 1998-067XN
CENTER_NAME    = EARTH
REF_FRAME      = TEME
TIME_SYSTEM    = UTC
MEAN_ELEMENT_THEORY = SGP/SGP4

EPOCH          = 2025-11-05T05:13:57.630432
MEAN_MOTION    = 15.53654674
ECCENTRICITY   = .00026249
INCLINATION    = 51.6319
RA_OF_ASC_NODE = 327.7352
ARG_OF_PERICENTER = 8.3465
MEAN_ANOMALY   = 351.7569

EPHEMERIS_TYPE = 0
CLASSIFICATION_TYPE = U
NORAD_CAT_ID   = 65941
ELEMENT_SET_NO = 999
REV_AT_EPOCH   = 401
BSTAR          = .82138633E-3
MEAN_MOTION_DOT = .53329E-3
MEAN_MOTION_DDOT = 0

